{"type": "FeatureCollection", "features": [ {"type": "Feature", "properties": {"norad_id": 30481, "name": "FENGYUN 1C DEB", "group": "fengyun-1c-debris", "lat": -30.16305236698399, "lon": 18.899583016608982, "alt_km": 793.1593486076326, "timestamp": "2025-12-22T23:36:20.990128+00:00", "meta": {"OBJECT_NAME": "FENGYUN 1C DEB", "OBJECT_ID": "1999-025AGT", "EPOCH": "2025-12-22T14:20:06.822816", "MEAN_MOTION": 14.39075127, "ECCENTRICITY": 0.022321, "INCLINATION": 98.3364, "RA_OF_ASC_NODE": 13.6355, "ARG_OF_PERICENTER": 230.2201, "MEAN_ANOMALY": 256.8419, "EPHEMERIS_TYPE": 0, "CLASSIFICATION_TYPE": "U", "NORAD_CAT_ID": 30481, "ELEMENT_SET_NO": 999, "REV_AT_EPOCH": 98625, "BSTAR": 0.00040152544, "MEAN_MOTION_DOT": 1.608e-05, "MEAN_MOTION_DDOT": 0}, "tle": {"line1": "1 30481U 99025AGT 25356.59730119  .00001608  00000+0  40153-3 0  9997", "line2": "2 30481  98.3364  13.6355 0223210 230.2201 256.8419 14.39075127986258"}}, "geometry": {"type": "Point", "coordinates": [18.899583016608982, -30.16305236698399]}}, {"type": "Feature", "properties": {"norad_id": 30489, "name": "FENGYUN 1C DEB", "group": "fengyun-1c-debris", "lat": 44.99270921997115, "lon": 2.8084024714766813, "alt_km": 934.567210034983, "timestamp": "2025-12-22T23:36:20.990139+00:00", "meta": {"OBJECT_NAME": "FENGYUN 1C DEB", "OBJECT_ID": "1999-025AHB", "EPOCH": "2025-12-22T12:15:31.343616", "MEAN_MOTION": 14.15831778, "ECCENTRICITY": 0.01391202, "INCLINATION": 98.4679, "RA_OF_ASC_NODE": 10.9241, "ARG_OF_PERICENTER": 236.6794, "MEAN_ANOMALY": 280.2749, "EPHEMERIS_TYPE": 0, "CLASSIFICATION_TYPE": "U", "NORAD_CAT_ID": 30489, "ELEMENT_SET_NO": 999, "REV_AT_EPOCH": 97525, "BSTAR": 0.00023298057, "MEAN_MOTION_DOT": 4.61e-06, "MEAN_MOTION_DDOT": 0}, "tle": {"line1": "1 30489U 99025AHB 25356.51077944  .00000461  00000+0  23298-3 0  9994", "line2": "2 30489  98.4679  10.9241 0139120 236.6794 280.2749 14.15831778975254"}}, "geometry": {"type": "Point", "coordinates": [2.8084024714766813, 44.99270921997115]}}, {"type": "Feature", "properties": {"norad_id": 30490, "name": "FENGYUN 1C DEB", "group": "fengyun-1c-debris", "lat": 68.1923168594691, "lon": 108.38583231903978, "alt_km": 437.3979851270278, "timestamp": "2025-12-22T23:36:20.990148+00:00", "meta": {"OBJECT_NAME": "FENGYUN 1C DEB", "OBJECT_ID": "1999-025AHC", "EPOCH": "2025-12-21T19:03:21.852288", "MEAN_MOTION": 15.30169227, "ECCENTRICITY": 0.00454286, "INCLINATION": 98.3293, "RA_OF_ASC_NODE": 128.5315, "ARG_OF_PERICENTER": 83.8939, "MEAN_ANOMALY": 276.7472, "EPHEMERIS_TYPE": 0, "CLASSIFICATION_TYPE": "U", "NORAD_CAT_ID": 30490, "ELEMENT_SET_NO": 999, "REV_AT_EPOCH": 99634, "BSTAR": 0.0032017095, "MEAN_MOTION_DOT": 0.00097463, "MEAN_MOTION_DDOT": 0}, "tle": {"line1": "1 30490U 99025AHC 25355.79400292  .00097463  00000+0  32017-2 0  9997", "line2": "2 30490  98.3293 128.5315 0045428  83.8939 276.7472 15.30169227996342"}}, "geometry": {"type": "Point", "coordinates": [108.38583231903978, 68.1923168594691]}}, {"type": "Feature", "properties": {"norad_id": 30492, "name": "FENGYUN 1C DEB", "group": "fengyun-1c-debris", "lat": 52.354029103742974, "lon": 2.4955501383065295, "alt_km": 650.4007053788919, "timestamp": "2025-12-22T23:36:20.990159+00:00", "meta": {"OBJECT_NAME": "FENGYUN 1C DEB", "OBJECT_ID": "1999-025AHE", "EPOCH": "2025-12-22T06:49:32.075328", "MEAN_MOTION": 14.52072491, "ECCENTRICITY": 0.00942038, "INCLINATION": 102.3241, "RA_OF_ASC_NODE": 17.9376, "ARG_OF_PERICENTER": 37.3088, "MEAN_ANOMALY": 323.4587, "EPHEMERIS_TYPE": 0, "CLASSIFICATION_TYPE": "U", "NORAD_CAT_ID": 30492, "ELEMENT_SET_NO": 999, "REV_AT_EPOCH": 97033, "BSTAR": 0.0035100139, "MEAN_MOTION_DOT": 0.00015, "MEAN_MOTION_DDOT": 0}, "tle": {"line1": "1 30492U 99025AHE 25356.28439902  .00015000  00000+0  35100-2 0  9997", "line2": "2 30492 102.3241  17.9376 0094203  37.3088 323.4587 14.52072491970332"}}, "geometry": {"type": "Point", "coordinates": [2.4955501383065295, 52.354029103742974]}}, {"type": "Feature", "properties": {"norad_id": 30493, "name": "FENGYUN 1C DEB", "group": "fengyun-1c-debris", "lat": -0.11990082329705128, "lon": -173.4152122266338, "alt_km": 1051.3135622214886, "timestamp": "2025-12-22T23:36:20.990169+00:00", "meta": {"OBJECT_NAME": "FENGYUN 1C DEB", "OBJECT_ID": "1999-025AHF", "EPOCH": "2025-12-21T11:32:53.736864", "MEAN_MOTION": 13.93028645, "ECCENTRICITY": 0.01807391, "INCLINATION": 98.5714, "RA_OF_ASC_NODE": 185.1743, "ARG_OF_PERICENTER": 192.5655, "MEAN_ANOMALY": 196.8682, "EPHEMERIS_TYPE": 0, "CLASSIFICATION_TYPE": "U", "NORAD_CAT_ID": 30493, "ELEMENT_SET_NO": 999, "REV_AT_EPOCH": 95217, "BSTAR": 0.0021722831, "MEAN_MOTION_DOT": 3.191e-05, "MEAN_MOTION_DDOT": 0}, "tle": {"line1": "1 30493U 99025AHF 25355.48117751  .00003191  00000+0  21723-2 0  9998", "line2": "2 30493  98.5714 185.1743 0180739 192.5655 196.8682 13.93028645952170"}}, "geometry": {"type": "Point", "coordinates": [-173.4152122266338, -0.11990082329705128]}}, {"type": "Feature", "properties": {"norad_id": 30494, "name": "FENGYUN 1C DEB", "group": "fengyun-1c-debris", "lat": 44.21285309683119, "lon": -138.6820093641018, "alt_km": 892.3412126685671, "timestamp": "2025-12-22T23:36:20.990179+00:00", "meta": {"OBJECT_NAME": "FENGYUN 1C DEB", "OBJECT_ID": "1999-025AHG", "EPOCH": "2025-12-20T20:27:26.731008", "MEAN_MOTION": 13.79394652, "ECCENTRICITY": 0.0186172, "INCLINATION": 99.2815, "RA_OF_ASC_NODE": 30.0747, "ARG_OF_PERICENTER": 200.8117, "MEAN_ANOMALY": 158.5384, "EPHEMERIS_TYPE": 0, "CLASSIFICATION_TYPE": "U", "NORAD_CAT_ID": 30494, "ELEMENT_SET_NO": 999, "REV_AT_EPOCH": 94598, "BSTAR": 0.0010376, "MEAN_MOTION_DOT": 1.17e-05, "MEAN_MOTION_DDOT": 0}, "tle": {"line1": "1 30494U 99025AHG 25354.85239272  .00001170  00000+0  10376-2 0  9999", "line2": "2 30494  99.2815  30.0747 0186172 200.8117 158.5384 13.79394652945989"}}, "geometry": {"type": "Point", "coordinates": [-138.6820093641018, 44.21285309683119]}}, {"type": "Feature", "properties": {"norad_id": 30495, "name": "FENGYUN 1C DEB", "group": "fengyun-1c-debris", "lat": -61.99285102552877, "lon": -117.13406402222233, "alt_km": 833.0872659908882, "timestamp": "2025-12-22T23:36:20.990189+00:00", "meta": {"OBJECT_NAME": "FENGYUN 1C DEB", "OBJECT_ID": "1999-025AHH", "EPOCH": "2025-12-22T00:03:11.720736", "MEAN_MOTION": 12.94419585, "ECCENTRICITY": 0.05976903, "INCLINATION": 102.2599, "RA_OF_ASC_NODE": 85.8959, "ARG_OF_PERICENTER": 247.7478, "MEAN_ANOMALY": 105.9203, "EPHEMERIS_TYPE": 0, "CLASSIFICATION_TYPE": "U", "NORAD_CAT_ID": 30495, "ELEMENT_SET_NO": 999, "REV_AT_EPOCH": 88793, "BSTAR": 0.0034452376, "MEAN_MOTION_DOT": 2.107e-05, "MEAN_MOTION_DDOT": 0}, "tle": {"line1": "1 30495U 99025AHH 25356.00221899  .00002107  00000+0  34452-2 0  9997", "line2": "2 30495 102.2599  85.8959 0597690 247.7478 105.9203 12.94419585887933"}}, "geometry": {"type": "Point", "coordinates": [-117.13406402222233, -61.99285102552877]}}, {"type": "Feature", "properties": {"norad_id": 30496, "name": "FENGYUN 1C DEB", "group": "fengyun-1c-debris", "lat": -78.03825813351898, "lon": -49.087802179734695, "alt_km": 666.5156951621229, "timestamp": "2025-12-22T23:36:20.990200+00:00", "meta": {"OBJECT_NAME": "FENGYUN 1C DEB", "OBJECT_ID": "1999-025AHJ", "EPOCH": "2025-12-22T11:07:05.588832", "MEAN_MOTION": 14.94385716, "ECCENTRICITY": 0.01300004, "INCLINATION": 98.7844, "RA_OF_ASC_NODE": 263.4527, "ARG_OF_PERICENTER": 66.1524, "MEAN_ANOMALY": 295.3255, "EPHEMERIS_TYPE": 0, "CLASSIFICATION_TYPE": "U", "NORAD_CAT_ID": 30496, "ELEMENT_SET_NO": 999, "REV_AT_EPOCH": 1289, "BSTAR": 0.000635621, "MEAN_MOTION_DOT": 8.02e-05, "MEAN_MOTION_DDOT": 0}, "tle": {"line1": "1 30496U 99025AHJ 25356.46325913  .00008020  00000+0  63562-3 0  9995", "line2": "2 30496  98.7844 263.4527 0130000  66.1524 295.3255 14.94385716 12890"}}, "geometry": {"type": "Point", "coordinates": [-49.087802179734695, -78.03825813351898]}}, {"type": "Feature", "properties": {"norad_id": 30498, "name": "FENGYUN 1C DEB", "group": "fengyun-1c-debris", "lat": 28.57417331987051, "lon": 43.22888537211479, "alt_km": 882.0586478513869, "timestamp": "2025-12-22T23:36:20.990210+00:00", "meta": {"OBJECT_NAME": "FENGYUN 1C DEB", "OBJECT_ID": "1999-025AHL", "EPOCH": "2025-12-21T09:56:54.718944", "MEAN_MOTION": 14.0611368, "ECCENTRICITY": 0.01039693, "INCLINATION": 99.2381, "RA_OF_ASC_NODE": 46.714, "ARG_OF_PERICENTER": 132.2321, "MEAN_ANOMALY": 239.7907, "EPHEMERIS_TYPE": 0, "CLASSIFICATION_TYPE": "U", "NORAD_CAT_ID": 30498, "ELEMENT_SET_NO": 999, "REV_AT_EPOCH": 95891, "BSTAR": 0.0012820954, "MEAN_MOTION_DOT": 2.166e-05, "MEAN_MOTION_DDOT": 0}, "tle": {"line1": "1 30498U 99025AHL 25355.41452221  .00002166  00000+0  12821-2 0  9990", "line2": "2 30498  99.2381  46.7140 0103969 132.2321 239.7907 14.06113680958911"}}, "geometry": {"type": "Point", "coordinates": [43.22888537211479, 28.57417331987051]}}, {"type": "Feature", "properties": {"norad_id": 30500, "name": "FENGYUN 1C DEB", "group": "fengyun-1c-debris", "lat": -54.33536163677387, "lon": -104.04145803835647, "alt_km": 853.2340885843241, "timestamp": "2025-12-22T23:36:20.990221+00:00", "meta": {"OBJECT_NAME": "FENGYUN 1C DEB", "OBJECT_ID": "1999-025AHN", "EPOCH": "2025-12-22T12:57:50.714784", "MEAN_MOTION": 14.25296088, "ECCENTRICITY": 0.0063574, "INCLINATION": 99.0723, "RA_OF_ASC_NODE": 88.3648, "ARG_OF_PERICENTER": 88.2885, "MEAN_ANOMALY": 32.7408, "EPHEMERIS_TYPE": 0, "CLASSIFICATION_TYPE": "U", "NORAD_CAT_ID": 30500, "ELEMENT_SET_NO": 999, "REV_AT_EPOCH": 96821, "BSTAR": 0.0022176513, "MEAN_MOTION_DOT": 5.289e-05, "MEAN_MOTION_DDOT": 0}, "tle": {"line1": "1 30500U 99025AHN 25356.54017031  .00005289  00000+0  22177-2 0  9999", "line2": "2 30500  99.0723  88.3648 0063574  88.2885  32.7408 14.25296088968216"}}, "geometry": {"type": "Point", "coordinates": [-104.04145803835647, -54.33536163677387]}}]}